[
  {
    "COMMENT": "GENERATED VIA SPACETRACK.ORG API",
    "ORIGINATOR": "18 SPCS",
    "NORAD_CAT_ID": "48621",
    "OBJECT_NAME": "HAIYANG 2D",
    "OBJECT_TYPE": "PAYLOAD",
    "CLASSIFICATION_TYPE": "U",
    "INTLDES": "21043A",
    "EPOCH": "2023-08-04 02:10:00",
    "EPOCH_MICROSECONDS": "693984",
    "MEAN_MOTION": "13.83373256",
    "ECCENTRICITY": "0.0007579",
    "INCLINATION": "65.9981",
    "RA_OF_ASC_NODE": "34.0979",
    "ARG_OF_PERICENTER": "263.0966",
    "MEAN_ANOMALY": "96.924",
    "EPHEMERIS_TYPE": "0",
    "ELEMENT_SET_NO": "999",
    "REV_AT_EPOCH": "11161",
    "BSTAR": "0.000044966",
    "MEAN_MOTION_DOT": "-0.00000032",
    "MEAN_MOTION_DDOT": "0",
    "FILE": "3971187",
    "TLE_LINE0": "0 HAIYANG 2D",
    "TLE_LINE1": "1 48621U 21043A   23216.09028581 -.00000032  00000-0  44966-4 0  9997",
    "TLE_LINE2": "2 48621  65.9981  34.0979 0007579 263.0966  96.9240 13.83373256111614",
    "OBJECT_ID": "2021-043A",
    "OBJECT_NUMBER": "48621",
    "SEMIMAJOR_AXIS": "7330.084",
    "PERIOD": "104.093",
    "APOGEE": "957.504",
    "PERIGEE": "946.393",
    "DECAYED": "0"
  },
  {
    "COMMENT": "GENERATED VIA SPACETRACK.ORG API",
    "ORIGINATOR": "18 SPCS",
    "NORAD_CAT_ID": "48621",
    "OBJECT_NAME": "HAIYANG 2D",
    "OBJECT_TYPE": "PAYLOAD",
    "CLASSIFICATION_TYPE": "U",
    "INTLDES": "21043A",
    "EPOCH": "2023-08-04 10:50:32",
    "EPOCH_MICROSECONDS": "55360",
    "MEAN_MOTION": "13.83373235",
    "ECCENTRICITY": "0.0007571",
    "INCLINATION": "65.9981",
    "RA_OF_ASC_NODE": "33.1979",
    "ARG_OF_PERICENTER": "263.1544",
    "MEAN_ANOMALY": "96.8663",
    "EPHEMERIS_TYPE": "0",
    "ELEMENT_SET_NO": "999",
    "REV_AT_EPOCH": "11166",
    "BSTAR": "0.000035448",
    "MEAN_MOTION_DOT": "-0.00000042",
    "MEAN_MOTION_DDOT": "0",
    "FILE": "3971470",
    "TLE_LINE0": "0 HAIYANG 2D",
    "TLE_LINE1": "1 48621U 21043A   23216.45175990 -.00000042  00000-0  35448-4 0  9990",
    "TLE_LINE2": "2 48621  65.9981  33.1979 0007571 263.1544  96.8663 13.83373235111669",
    "OBJECT_ID": "2021-043A",
    "OBJECT_NUMBER": "48621",
    "SEMIMAJOR_AXIS": "7330.084",
    "PERIOD": "104.093",
    "APOGEE": "957.498",
    "PERIGEE": "946.399",
    "DECAYED": "0"
  },
  {
    "COMMENT": "GENERATED VIA SPACETRACK.ORG API",
    "ORIGINATOR": "18 SPCS",
    "NORAD_CAT_ID": "48621",
    "OBJECT_NAME": "HAIYANG 2D",
    "OBJECT_TYPE": "PAYLOAD",
    "CLASSIFICATION_TYPE": "U",
    "INTLDES": "21043A",
    "EPOCH": "2023-08-04 17:46:57",
    "EPOCH_MICROSECONDS": "139104",
    "MEAN_MOTION": "13.83373272",
    "ECCENTRICITY": "0.0007568",
    "INCLINATION": "65.9981",
    "RA_OF_ASC_NODE": "32.4779",
    "ARG_OF_PERICENTER": "263.2064",
    "MEAN_ANOMALY": "96.8143",
    "EPHEMERIS_TYPE": "0",
    "ELEMENT_SET_NO": "999",
    "REV_AT_EPOCH": "11170",
    "BSTAR": "0.000040859",
    "MEAN_MOTION_DOT": "-0.00000036",
    "MEAN_MOTION_DDOT": "0",
    "FILE": "3971716",
    "TLE_LINE0": "0 HAIYANG 2D",
    "TLE_LINE1": "1 48621U 21043A   23216.74093911 -.00000036  00000-0  40859-4 0  9999",
    "TLE_LINE2": "2 48621  65.9981  32.4779 0007568 263.2064  96.8143 13.83373272111702",
    "OBJECT_ID": "2021-043A",
    "OBJECT_NUMBER": "48621",
    "SEMIMAJOR_AXIS": "7330.083",
    "PERIOD": "104.093",
    "APOGEE": "957.496",
    "PERIGEE": "946.401",
    "DECAYED": "0"
  },
  {
    "COMMENT": "GENERATED VIA SPACETRACK.ORG API",
    "ORIGINATOR": "18 SPCS",
    "NORAD_CAT_ID": "48621",
    "OBJECT_NAME": "HAIYANG 2D",
    "OBJECT_TYPE": "PAYLOAD",
    "CLASSIFICATION_TYPE": "U",
    "INTLDES": "21043A",
    "EPOCH": "2023-08-05 02:27:28",
    "EPOCH_MICROSECONDS": "495296",
    "MEAN_MOTION": "13.83373303",
    "ECCENTRICITY": "0.0007564",
    "INCLINATION": "65.9981",
    "RA_OF_ASC_NODE": "31.5779",
    "ARG_OF_PERICENTER": "263.2595",
    "MEAN_ANOMALY": "96.7612",
    "EPHEMERIS_TYPE": "0",
    "ELEMENT_SET_NO": "999",
    "REV_AT_EPOCH": "11175",
    "BSTAR": "0.000036913",
    "MEAN_MOTION_DOT": "-0.00000041",
    "MEAN_MOTION_DDOT": "0",
    "FILE": "3972014",
    "TLE_LINE0": "0 HAIYANG 2D",
    "TLE_LINE1": "1 48621U 21043A   23217.10241314 -.00000041  00000-0  36913-4 0  9994",
    "TLE_LINE2": "2 48621  65.9981  31.5779 0007564 263.2595  96.7612 13.83373303111757",
    "OBJECT_ID": "2021-043A",
    "OBJECT_NUMBER": "48621",
    "SEMIMAJOR_AXIS": "7330.083",
    "PERIOD": "104.093",
    "APOGEE": "957.493",
    "PERIGEE": "946.404",
    "DECAYED": "0"
  },
  {
    "COMMENT": "GENERATED VIA SPACETRACK.ORG API",
    "ORIGINATOR": "18 SPCS",
    "NORAD_CAT_ID": "48621",
    "OBJECT_NAME": "HAIYANG 2D",
    "OBJECT_TYPE": "PAYLOAD",
    "CLASSIFICATION_TYPE": "U",
    "INTLDES": "21043A",
    "EPOCH": "2023-08-05 11:07:59",
    "EPOCH_MICROSECONDS": "850624",
    "MEAN_MOTION": "13.83373357",
    "ECCENTRICITY": "0.000756",
    "INCLINATION": "65.9982",
    "RA_OF_ASC_NODE": "30.6779",
    "ARG_OF_PERICENTER": "263.2818",
    "MEAN_ANOMALY": "96.739",
    "EPHEMERIS_TYPE": "0",
    "ELEMENT_SET_NO": "999",
    "REV_AT_EPOCH": "11180",
    "BSTAR": "0.000040256",
    "MEAN_MOTION_DOT": "-0.00000037",
    "MEAN_MOTION_DDOT": "0",
    "FILE": "3972305",
    "TLE_LINE0": "0 HAIYANG 2D",
    "TLE_LINE1": "1 48621U 21043A   23217.46388716 -.00000037  00000-0  40256-4 0  9991",
    "TLE_LINE2": "2 48621  65.9982  30.6779 0007560 263.2818  96.7390 13.83373357111800",
    "OBJECT_ID": "2021-043A",
    "OBJECT_NUMBER": "48621",
    "SEMIMAJOR_AXIS": "7330.083",
    "PERIOD": "104.093",
    "APOGEE": "957.490",
    "PERIGEE": "946.407",
    "DECAYED": "0"
  },
  {
    "COMMENT": "GENERATED VIA SPACETRACK.ORG API",
    "ORIGINATOR": "18 SPCS",
    "NORAD_CAT_ID": "48621",
    "OBJECT_NAME": "HAIYANG 2D",
    "OBJECT_TYPE": "PAYLOAD",
    "CLASSIFICATION_TYPE": "U",
    "INTLDES": "21043A",
    "EPOCH": "2023-08-05 18:04:24",
    "EPOCH_MICROSECONDS": "930912",
    "MEAN_MOTION": "13.83373421",
    "ECCENTRICITY": "0.0007566",
    "INCLINATION": "65.9982",
    "RA_OF_ASC_NODE": "29.9579",
    "ARG_OF_PERICENTER": "263.2694",
    "MEAN_ANOMALY": "96.7513",
    "EPHEMERIS_TYPE": "0",
    "ELEMENT_SET_NO": "999",
    "REV_AT_EPOCH": "11184",
    "BSTAR": "0.000049334",
    "MEAN_MOTION_DOT": "-0.00000027",
    "MEAN_MOTION_DDOT": "0",
    "FILE": "3972573",
    "TLE_LINE0": "0 HAIYANG 2D",
    "TLE_LINE1": "1 48621U 21043A   23217.75306633 -.00000027  00000-0  49334-4 0  9996",
    "TLE_LINE2": "2 48621  65.9982  29.9579 0007566 263.2694  96.7513 13.83373421111840",
    "OBJECT_ID": "2021-043A",
    "OBJECT_NUMBER": "48621",
    "SEMIMAJOR_AXIS": "7330.083",
    "PERIOD": "104.093",
    "APOGEE": "957.494",
    "PERIGEE": "946.402",
    "DECAYED": "0"
  },
  {
    "COMMENT": "GENERATED VIA SPACETRACK.ORG API",
    "ORIGINATOR": "18 SPCS",
    "NORAD_CAT_ID": "48621",
    "OBJECT_NAME": "HAIYANG 2D",
    "OBJECT_TYPE": "PAYLOAD",
    "CLASSIFICATION_TYPE": "U",
    "INTLDES": "21043A",
    "EPOCH": "2023-08-06 04:29:02",
    "EPOCH_MICROSECONDS": "556960",
    "MEAN_MOTION": "13.83373444",
    "ECCENTRICITY": "0.0007558",
    "INCLINATION": "65.9983",
    "RA_OF_ASC_NODE": "28.8779",
    "ARG_OF_PERICENTER": "263.3607",
    "MEAN_ANOMALY": "96.6601",
    "EPHEMERIS_TYPE": "0",
    "ELEMENT_SET_NO": "999",
    "REV_AT_EPOCH": "11190",
    "BSTAR": "0.000045808",
    "MEAN_MOTION_DOT": "-0.00000031",
    "MEAN_MOTION_DDOT": "0",
    "FILE": "3972891",
    "TLE_LINE0": "0 HAIYANG 2D",
    "TLE_LINE1": "1 48621U 21043A   23218.18683515 -.00000031  00000-0  45808-4 0  9998",
    "TLE_LINE2": "2 48621  65.9983  28.8779 0007558 263.3607  96.6601 13.83373444111906",
    "OBJECT_ID": "2021-043A",
    "OBJECT_NUMBER": "48621",
    "SEMIMAJOR_AXIS": "7330.083",
    "PERIOD": "104.093",
    "APOGEE": "957.488",
    "PERIGEE": "946.408",
    "DECAYED": "0"
  },
  {
    "COMMENT": "GENERATED VIA SPACETRACK.ORG API",
    "ORIGINATOR": "18 SPCS",
    "NORAD_CAT_ID": "48621",
    "OBJECT_NAME": "HAIYANG 2D",
    "OBJECT_TYPE": "PAYLOAD",
    "CLASSIFICATION_TYPE": "U",
    "INTLDES": "21043A",
    "EPOCH": "2023-08-06 11:25:27",
    "EPOCH_MICROSECONDS": "637248",
    "MEAN_MOTION": "13.83373482",
    "ECCENTRICITY": "0.0007556",
    "INCLINATION": "65.9983",
    "RA_OF_ASC_NODE": "28.1579",
    "ARG_OF_PERICENTER": "263.3371",
    "MEAN_ANOMALY": "96.6837",
    "EPHEMERIS_TYPE": "0",
    "ELEMENT_SET_NO": "999",
    "REV_AT_EPOCH": "11194",
    "BSTAR": "0.000044485",
    "MEAN_MOTION_DOT": "-0.00000032",
    "MEAN_MOTION_DDOT": "0",
    "FILE": "3973208",
    "TLE_LINE0": "0 HAIYANG 2D",
    "TLE_LINE1": "1 48621U 21043A   23218.47601432 -.00000032  00000-0  44485-4 0  9999",
    "TLE_LINE2": "2 48621  65.9983  28.1579 0007556 263.3371  96.6837 13.83373482111940",
    "OBJECT_ID": "2021-043A",
    "OBJECT_NUMBER": "48621",
    "SEMIMAJOR_AXIS": "7330.083",
    "PERIOD": "104.093",
    "APOGEE": "957.486",
    "PERIGEE": "946.409",
    "DECAYED": "0"
  }
]